[
    {
        "Altitude(m)": 605459.0644274026,
        "Argument of Periapsis(deg)": 0.0,
        "Eccentricity": 0.0,
        "Inclination(deg)": 60.0,
        "Latitude(deg)": 27.988329687848307,
        "Longitude(deg)": 72.79855988991108,
        "Mean Anomaly(deg)": 32.727299999999985,
        "RAAN(deg)": 155.0,
        "Satellite Name": "Test1 684",
        "Satellite Number": 684,
        "Semi-Major Axis(m)": 6980739.136638005,
        "Time(s)": 0
    },
    {
        "Altitude(m)": 605535.8559636828,
        "Argument of Periapsis(deg)": 0.00010418945913296404,
        "Eccentricity": 0.0,
        "Inclination(deg)": 60.0,
        "Latitude(deg)": 28.50145947856429,
        "Longitude(deg)": 73.15550481514494,
        "Mean Anomaly(deg)": 33.34740614546184,
        "RAAN(deg)": 154.99957995086027,
        "Satellite Name": "Test1 684",
        "Satellite Number": 684,
        "Semi-Major Axis(m)": 6980739.136638005,
        "Time(s)": 10
    }
]